[{"OBJECT_NAME":"ONEWEB-0428","OBJECT_ID":"2022-012H","EPOCH":"2025-09-22T01:44:55.427136","MEAN_MOTION":13.10369983,"ECCENTRICITY":0.00014522,"INCLINATION":87.8734,"RA_OF_ASC_NODE":89.7443,"ARG_OF_PERICENTER":90.1764,"MEAN_ANOMALY":269.953,"EPHEMERIS_TYPE":0,"CLASSIFICATION_TYPE":"U","NORAD_CAT_ID":51629,"ELEMENT_SET_NO":999,"REV_AT_EPOCH":17417,"BSTAR":-0.0012213375,"MEAN_MOTION_DOT":-4.14e-6,"MEAN_MOTION_DDOT":0},{"OBJECT_NAME":"ONEWEB-0431","OBJECT_ID":"2022-012J","EPOCH":"2025-09-22T06:31:35.998752","MEAN_MOTION":13.10375943,"ECCENTRICITY":0.00015307,"INCLINATION":87.8744,"RA_OF_ASC_NODE":89.6772,"ARG_OF_PERICENTER":111.5869,"MEAN_ANOMALY":248.5421,"EPHEMERIS_TYPE":0,"CLASSIFICATION_TYPE":"U","NORAD_CAT_ID":51630,"ELEMENT_SET_NO":999,"REV_AT_EPOCH":17425,"BSTAR":0.0019000696,"MEAN_MOTION_DOT":6.76e-6,"MEAN_MOTION_DDOT":0},{"OBJECT_NAME":"ONEWEB-0434","OBJECT_ID":"2022-012K","EPOCH":"2025-09-22T00:28:27.012576","MEAN_MOTION":13.10375492,"ECCENTRICITY":0.00020927,"INCLINATION":87.8743,"RA_OF_ASC_NODE":89.7692,"ARG_OF_PERICENTER":73.5055,"MEAN_ANOMALY":286.6302,"EPHEMERIS_TYPE":0,"CLASSIFICATION_TYPE":"U","NORAD_CAT_ID":51631,"ELEMENT_SET_NO":999,"REV_AT_EPOCH":17420,"BSTAR":-0.00060132357,"MEAN_MOTION_DOT":-1.97e-6,"MEAN_MOTION_DDOT":0},{"OBJECT_NAME":"ONEWEB-0435","OBJECT_ID":"2022-012L","EPOCH":"2025-09-22T06:10:16.326624","MEAN_MOTION":13.10375607,"ECCENTRICITY":0.00012243,"INCLINATION":87.8742,"RA_OF_ASC_NODE":89.7132,"ARG_OF_PERICENTER":84.818,"MEAN_ANOMALY":275.3087,"EPHEMERIS_TYPE":0,"CLASSIFICATION_TYPE":"U","NORAD_CAT_ID":51632,"ELEMENT_SET_NO":999,"REV_AT_EPOCH":17422,"BSTAR":0.00064509606,"MEAN_MOTION_DOT":2.38e-6,"MEAN_MOTION_DDOT":0},{"OBJECT_NAME":"ONEWEB-0436","OBJECT_ID":"2022-012M","EPOCH":"2025-09-22T03:46:51.139776","MEAN_MOTION":13.17647146,"ECCENTRICITY":0.00015081,"INCLINATION":87.9056,"RA_OF_ASC_NODE":59.1433,"ARG_OF_PERICENTER":98.0077,"MEAN_ANOMALY":262.1226,"EPHEMERIS_TYPE":0,"CLASSIFICATION_TYPE":"U","NORAD_CAT_ID":51633,"ELEMENT_SET_NO":999,"REV_AT_EPOCH":17838,"BSTAR":-3.0912697e-5,"MEAN_MOTION_DOT":1.0e-8,"MEAN_MOTION_DDOT":0},{"OBJECT_NAME":"ONEWEB-0438","OBJECT_ID":"2022-012N","EPOCH":"2025-09-22T05:46:20.796672","MEAN_MOTION":13.10373903,"ECCENTRICITY":0.00017753,"INCLINATION":87.8738,"RA_OF_ASC_NODE":89.7175,"ARG_OF_PERICENTER":83.5358,"MEAN_ANOMALY":276.5971,"EPHEMERIS_TYPE":0,"CLASSIFICATION_TYPE":"U","NORAD_CAT_ID":51634,"ELEMENT_SET_NO":999,"REV_AT_EPOCH":17425,"BSTAR":-0.0014487517,"MEAN_MOTION_DOT":-4.93e-6,"MEAN_MOTION_DDOT":0},{"OBJECT_NAME":"ONEWEB-0439","OBJECT_ID":"2022-012P","EPOCH":"2025-09-22T00:21:15.981984","MEAN_MOTION":13.10374482,"ECCENTRICITY":0.00016082,"INCLINATION":87.8743,"RA_OF_ASC_NODE":89.7511,"ARG_OF_PERICENTER":85.4238,"MEAN_ANOMALY":274.7073,"EPHEMERIS_TYPE":0,"CLASSIFICATION_TYPE":"U","NORAD_CAT_ID":51635,"ELEMENT_SET_NO":999,"REV_AT_EPOCH":17420,"BSTAR":-0.0013366059,"MEAN_MOTION_DOT":-4.54e-6,"MEAN_MOTION_DDOT":0},{"OBJECT_NAME":"ONEWEB-0442","OBJECT_ID":"2022-012Q","EPOCH":"2025-09-22T03:35:55.805280","MEAN_MOTION":13.17649746,"ECCENTRICITY":0.00023182,"INCLINATION":87.9052,"RA_OF_ASC_NODE":59.1988,"ARG_OF_PERICENTER":88.9026,"MEAN_ANOMALY":271.2372,"EPHEMERIS_TYPE":0,"CLASSIFICATION_TYPE":"U","NORAD_CAT_ID":51636,"ELEMENT_SET_NO":999,"REV_AT_EPOCH":17837,"BSTAR":0.00012408693,"MEAN_MOTION_DOT":6.1e-7,"MEAN_MOTION_DDOT":0},{"OBJECT_NAME":"ONEWEB-0443","OBJECT_ID":"2022-012R","EPOCH":"2025-09-22T04:03:52.667712","MEAN_MOTION":13.17647168,"ECCENTRICITY":0.00014598,"INCLINATION":87.905,"RA_OF_ASC_NODE":59.2019,"ARG_OF_PERICENTER":82.7098,"MEAN_ANOMALY":277.4199,"EPHEMERIS_TYPE":0,"CLASSIFICATION_TYPE":"U","NORAD_CAT_ID":51637,"ELEMENT_SET_NO":999,"REV_AT_EPOCH":17842,"BSTAR":0.00075554896,"MEAN_MOTION_DOT":3.06e-6,"MEAN_MOTION_DDOT":0},{"OBJECT_NAME":"ONEWEB-0444","OBJECT_ID":"2022-012S","EPOCH":"2025-09-22T05:36:47.028960","MEAN_MOTION":13.10372627,"ECCENTRICITY":0.00015012,"INCLINATION":87.8734,"RA_OF_ASC_NODE":89.7071,"ARG_OF_PERICENTER":84.127,"MEAN_ANOMALY":276.0029,"EPHEMERIS_TYPE":0,"CLASSIFICATION_TYPE":"U","NORAD_CAT_ID":51638,"ELEMENT_SET_NO":999,"REV_AT_EPOCH":17424,"BSTAR":-0.0016016882,"MEAN_MOTION_DOT":-5.46e-6,"MEAN_MOTION_DDOT":0},{"OBJECT_NAME":"ONEWEB-0445","OBJECT_ID":"2022-012T","EPOCH":"2025-09-22T06:07:52.852512","MEAN_MOTION":13.10377044,"ECCENTRICITY":0.00017824,"INCLINATION":87.8757,"RA_OF_ASC_NODE":89.6572,"ARG_OF_PERICENTER":90.8982,"MEAN_ANOMALY":269.235,"EPHEMERIS_TYPE":0,"CLASSIFICATION_TYPE":"U","NORAD_CAT_ID":51639,"ELEMENT_SET_NO":999,"REV_AT_EPOCH":17425,"BSTAR":0.00035152686,"MEAN_MOTION_DOT":1.35e-6,"MEAN_MOTION_DDOT":0},{"OBJECT_NAME":"ONEWEB-0446","OBJECT_ID":"2022-012U","EPOCH":"2025-09-22T01:54:29.086848","MEAN_MOTION":13.10371666,"ECCENTRICITY":0.00017576,"INCLINATION":87.8737,"RA_OF_ASC_NODE":89.7537,"ARG_OF_PERICENTER":94.6792,"MEAN_ANOMALY":265.4536,"EPHEMERIS_TYPE":0,"CLASSIFICATION_TYPE":"U","NORAD_CAT_ID":51640,"ELEMENT_SET_NO":999,"REV_AT_EPOCH":17421,"BSTAR":-0.0017805163,"MEAN_MOTION_DOT":-6.09e-6,"MEAN_MOTION_DDOT":0},{"OBJECT_NAME":"ONEWEB-0448","OBJECT_ID":"2022-012V","EPOCH":"2025-09-22T05:41:33.505440","MEAN_MOTION":13.10372793,"ECCENTRICITY":0.00015648,"INCLINATION":87.8736,"RA_OF_ASC_NODE":89.7217,"ARG_OF_PERICENTER":86.316,"MEAN_ANOMALY":273.8146,"EPHEMERIS_TYPE":0,"CLASSIFICATION_TYPE":"U","NORAD_CAT_ID":51641,"ELEMENT_SET_NO":999,"REV_AT_EPOCH":17420,"BSTAR":-0.0016889099,"MEAN_MOTION_DOT":-5.77e-6,"MEAN_MOTION_DDOT":0},{"OBJECT_NAME":"ONEWEB-0449","OBJECT_ID":"2022-012W","EPOCH":"2025-09-22T00:18:52.734240","MEAN_MOTION":13.10374735,"ECCENTRICITY":0.0001983,"INCLINATION":87.8738,"RA_OF_ASC_NODE":89.7372,"ARG_OF_PERICENTER":76.7565,"MEAN_ANOMALY":283.3783,"EPHEMERIS_TYPE":0,"CLASSIFICATION_TYPE":"U","NORAD_CAT_ID":51642,"ELEMENT_SET_NO":999,"REV_AT_EPOCH":17418,"BSTAR":-0.0014527713,"MEAN_MOTION_DOT":-4.94e-6,"MEAN_MOTION_DDOT":0},{"OBJECT_NAME":"ONEWEB-0451","OBJECT_ID":"2022-012X","EPOCH":"2025-09-22T03:41:59.345376","MEAN_MOTION":13.17649764,"ECCENTRICITY":0.00018094,"INCLINATION":87.9064,"RA_OF_ASC_NODE":59.1375,"ARG_OF_PERICENTER":89.3993,"MEAN_ANOMALY":270.7346,"EPHEMERIS_TYPE":0,"CLASSIFICATION_TYPE":"U","NORAD_CAT_ID":51643,"ELEMENT_SET_NO":999,"REV_AT_EPOCH":17836,"BSTAR":0.00012416079,"MEAN_MOTION_DOT":6.1e-7,"MEAN_MOTION_DDOT":0},{"OBJECT_NAME":"ONEWEB-0452","OBJECT_ID":"2022-012Y","EPOCH":"2025-09-22T03:39:33.978240","MEAN_MOTION":13.17648066,"ECCENTRICITY":0.00017357,"INCLINATION":87.9056,"RA_OF_ASC_NODE":59.1994,"ARG_OF_PERICENTER":84.2526,"MEAN_ANOMALY":275.8804,"EPHEMERIS_TYPE":0,"CLASSIFICATION_TYPE":"U","NORAD_CAT_ID":51644,"ELEMENT_SET_NO":999,"REV_AT_EPOCH":17837,"BSTAR":0.00012903292,"MEAN_MOTION_DOT":6.3e-7,"MEAN_MOTION_DDOT":0},{"OBJECT_NAME":"ONEWEB-0456","OBJECT_ID":"2022-012AA","EPOCH":"2025-09-22T06:03:05.238144","MEAN_MOTION":13.10375619,"ECCENTRICITY":0.0001458,"INCLINATION":87.8752,"RA_OF_ASC_NODE":89.6508,"ARG_OF_PERICENTER":88.5878,"MEAN_ANOMALY":271.5416,"EPHEMERIS_TYPE":0,"CLASSIFICATION_TYPE":"U","NORAD_CAT_ID":51646,"ELEMENT_SET_NO":999,"REV_AT_EPOCH":17425,"BSTAR":-0.0003338901,"MEAN_MOTION_DOT":-1.04e-6,"MEAN_MOTION_DDOT":0}]
