ONEWEB-0428             
1 51629U 22012H   25265.07286374 -.00000414  00000+0 -12213-2 0  9998
2 51629  87.8734  89.7443 0001452  90.1764 269.9530 13.10369983174173
ONEWEB-0431             
1 51630U 22012J   25265.27194443  .00000676  00000+0  19001-2 0  9997
2 51630  87.8744  89.6772 0001530 111.5869 248.5421 13.10375943174255
ONEWEB-0434             
1 51631U 22012K   25265.01975709 -.00000197  00000+0 -60132-3 0  9994
2 51631  87.8743  89.7692 0002092  73.5055 286.6302 13.10375492174200
ONEWEB-0435             
1 51632U 22012L   25265.25713341  .00000238  00000+0  64510-3 0  9991
2 51632  87.8742  89.7132 0001224  84.8180 275.3087 13.10375607174224
ONEWEB-0436             
1 51633U 22012M   25265.15753634  .00000001  00000+0 -30913-4 0  9990
2 51633  87.9056  59.1433 0001508  98.0077 262.1226 13.17647146178383
ONEWEB-0438             
1 51634U 22012N   25265.24051848 -.00000493  00000+0 -14488-2 0  9992
2 51634  87.8738  89.7175 0001775  83.5358 276.5971 13.10373903174257
ONEWEB-0439             
1 51635U 22012P   25265.01476831 -.00000454  00000+0 -13366-2 0  9992
2 51635  87.8743  89.7511 0001608  85.4238 274.7073 13.10374482174202
ONEWEB-0442             
1 51636U 22012Q   25265.14995145  .00000061  00000+0  12409-3 0  9991
2 51636  87.9052  59.1988 0002318  88.9026 271.2372 13.17649746178379
ONEWEB-0443             
1 51637U 22012R   25265.16935958  .00000306  00000+0  75555-3 0  9993
2 51637  87.9050  59.2019 0001459  82.7098 277.4199 13.17647168178427
ONEWEB-0444             
1 51638U 22012S   25265.23387765 -.00000546  00000+0 -16017-2 0  9994
2 51638  87.8734  89.7071 0001501  84.1270 276.0029 13.10372627174249
ONEWEB-0445             
1 51639U 22012T   25265.25547283  .00000135  00000+0  35153-3 0  9995
2 51639  87.8757  89.6572 0001782  90.8982 269.2350 13.10377044174255
ONEWEB-0446             
1 51640U 22012U   25265.07950332 -.00000609  00000+0 -17805-2 0  9991
2 51640  87.8737  89.7537 0001757  94.6792 265.4536 13.10371666174214
ONEWEB-0448             
1 51641U 22012V   25265.23719335 -.00000577  00000+0 -16889-2 0  9991
2 51641  87.8736  89.7217 0001564  86.3160 273.8146 13.10372793174203
ONEWEB-0449             
1 51642U 22012W   25265.01311035 -.00000494  00000+0 -14528-2 0  9999
2 51642  87.8738  89.7372 0001983  76.7565 283.3783 13.10374735174183
ONEWEB-0451             
1 51643U 22012X   25265.15415909  .00000061  00000+0  12416-3 0  9993
2 51643  87.9064  59.1375 0001809  89.3993 270.7346 13.17649764178366
ONEWEB-0452             
1 51644U 22012Y   25265.15247660  .00000063  00000+0  12903-3 0  9994
2 51644  87.9056  59.1994 0001735  84.2526 275.8804 13.17648066178379
ONEWEB-0456             
1 51646U 22012AA  25265.25214396 -.00000104  00000+0 -33389-3 0  9996
2 51646  87.8752  89.6508 0001458  88.5878 271.5416 13.10375619174250
